     2.100          NAVIGATION                              RINEX VERSION / TYPE
fic2rin                                 04/09/2010 00:59:47 PGM / RUN BY / DATE
                                                            END OF HEADER
32 10  4  8  6  0  0.0  .563417561352D-04 -.864019966684D-11  .000000000000D+00
     .500000000000D+02 -.165625000000D+01  .471233914498D-08  .100770923365D+01
    -.346451997757D-06  .126934209839D-01  .693276524544D-05  .515376144409D+04
     .367200000000D+06  .149011611938D-06  .137822892365D+01 -.307336449623D-06
     .959530520983D+00  .244593750000D+03 -.997080888033D+00 -.825141513313D-08
    -.307512809143D-09  .100000000000D+01  .157800000000D+04  .000000000000D+00
     .240000000000D+01  .000000000000D+00 -.325962901115D-08  .500000000000D+02
     .360006000000D+06  .400000000000D+01
 4 10  4  8  7  0  0.0  .551319681108D-04  .864019966684D-11  .000000000000D+00
     .970000000000D+02  .364375000000D+02  .513057085173D-08 -.856064314423D+00
     .192038714886D-05  .908854906447D-02  .703334808350D-05  .515366509056D+04
     .370800000000D+06  .260770320892D-06  .247692627244D+00  .173225998878D-06
     .939599270104D+00  .231531250000D+03  .602984656663D+00 -.837713465557D-08
     .846463830045D-10  .100000000000D+01  .157800000000D+04  .000000000000D+00
     .340000000000D+01  .000000000000D+00 -.605359673500D-08  .970000000000D+02
     .360006000000D+06  .600000000000D+01
 4 10  4  8  5 59 44.0  .551026314497D-04  .864019966684D-11  .000000000000D+00
     .410000000000D+02  .348125000000D+02  .506878256371D-08 -.138347595583D+01
     .178255140781D-05  .908863369841D-02  .700168311596D-05  .515366539764D+04
     .367184000000D+06  .158324837685D-06  .247722321555D+00 -.763684511185D-07
     .939599211587D+00  .232437500000D+03  .602967531744D+00 -.826498712703D-08
     .155720772109D-09  .100000000000D+01  .157800000000D+04  .000000000000D+00
     .240000000000D+01  .000000000000D+00 -.605359673500D-08  .410000000000D+02
     .360486000000D+06  .400000000000D+01
23 10  4  8  5 59 44.0  .374941155314D-03 -.125055521494D-11  .000000000000D+00
     .150000000000D+02  .309375000000D+02  .412160025262D-08  .183787480419D+01
     .168196856976D-05  .648498442024D-02  .943988561630D-05  .515371065331D+04
     .367184000000D+06 -.130385160446D-07  .234803154775D+01  .856816768646D-07
     .968297936787D+00  .200250000000D+03  .300377611673D+01 -.787782814316D-08
    -.118576367753D-09  .100000000000D+01  .157800000000D+04  .000000000000D+00
     .240000000000D+01  .000000000000D+00 -.200234353542D-07  .150000000000D+02
     .362286000000D+06  .400000000000D+01
 5 10  4  8  5 59 44.0 -.200653448701D-05  .341060513165D-12  .000000000000D+00
     .360000000000D+02  .381250000000D+01  .464555064869D-08 -.293088232621D+01
     .204890966415D-06  .188594590873D-02  .657141208649D-05  .515367970085D+04
     .367184000000D+06 -.931322574615D-08  .128919388314D+01  .204890966415D-07
     .958748120210D+00  .254156250000D+03  .341971462495D+00 -.814819654795D-08
    -.233581158164D-09  .100000000000D+01  .157800000000D+04  .000000000000D+00
     .240000000000D+01  .000000000000D+00 -.884756445885D-08  .360000000000D+02
     .362736000000D+06  .400000000000D+01
 5 10  4  8  7 59 44.0 -.200374051929D-05  .341060513165D-12  .000000000000D+00
     .370000000000D+02 -.234375000000D+01  .465090801470D-08 -.188100111568D+01
    -.132247805595D-06  .188668479677D-02  .639818608761D-05  .515367795753D+04
     .374384000000D+06 -.707805156708D-07  .128913555074D+01 -.279396772385D-07
     .958746367635D+00  .256781250000D+03  .342268919091D+00 -.812712424163D-08
    -.287154818294D-09  .100000000000D+01  .157800000000D+04  .000000000000D+00
     .240000000000D+01  .000000000000D+00 -.884756445885D-08  .370000000000D+02
     .367206000000D+06  .400000000000D+01
23 10  4  8  7 59 44.0  .374932307750D-03 -.125055521494D-11  .000000000000D+00
     .160000000000D+02  .418125000000D+02  .414445834761D-08  .288815471695D+01
     .217184424400D-05  .648616440594D-02  .949390232563D-05  .515370803452D+04
     .374384000000D+06 -.875443220139D-07  .234797464901D+01  .279396772385D-07
     .968297451098D+00  .199125000000D+03  .300365242408D+01 -.781996859022D-08
    -.653598653579D-10  .100000000000D+01  .157800000000D+04  .000000000000D+00
     .240000000000D+01  .000000000000D+00 -.200234353542D-07  .160000000000D+02
     .367206000000D+06  .400000000000D+01
 2 10  4  8  8  0  0.0  .244381837547D-03  .375166564481D-11  .000000000000D+00
     .190000000000D+02  .374062500000D+02  .503663836763D-08  .287692286496D+01
     .193156301975D-05  .947800488211D-02  .756233930588D-05  .515380039787D+04
     .374400000000D+06 -.186264514923D-06  .229743447497D+00  .484287738800D-07
     .940457198412D+00  .224187500000D+03  .301364442959D+01 -.816926885427D-08
     .132148361653D-09  .100000000000D+01  .157800000000D+04  .000000000000D+00
     .240000000000D+01  .000000000000D+00 -.172294676304D-07  .190000000000D+02
     .367206000000D+06  .400000000000D+01
 3 10  4  8  8  0  0.0  .539030414075D-03  .500222085975D-11  .000000000000D+00
     .104000000000D+03 -.495625000000D+02  .519985945216D-08  .279630086298D+01
    -.265613198280D-05  .129407247296D-01  .100638717413D-04  .515370628166D+04
     .374400000000D+06  .000000000000D+00 -.921731181369D+00 -.163912773132D-06
     .927007640149D+00  .164625000000D+03  .986813207314D+00 -.807640784338D-08
     .353586156854D-10  .100000000000D+01  .157800000000D+04  .000000000000D+00
     .340000000000D+01  .000000000000D+00 -.419095158577D-08  .104000000000D+03
     .367206000000D+06  .400000000000D+01
 4 10  4  8  8  0  0.0  .551650300622D-04  .864019966684D-11  .000000000000D+00
     .420000000000D+02  .346562500000D+02  .521200281512D-08 -.330988726438D+00
     .185333192348D-05  .908810773399D-02  .721588730812D-05  .515366424370D+04
     .374400000000D+06  .521540641785D-07  .247662289248D+00  .121071934700D-06
     .939599148682D+00  .227562500000D+03  .603004327059D+00 -.848285334489D-08
     .935753263594D-10  .100000000000D+01  .157800000000D+04  .000000000000D+00
     .240000000000D+01  .000000000000D+00 -.605359673500D-08  .420000000000D+02
     .367206000000D+06  .400000000000D+01
 6 10  4  8  8  0  0.0  .671576708555D-03 -.886757334229D-11  .000000000000D+00
     .190000000000D+02 -.302812500000D+02  .512378485478D-08 -.124376532188D+01
    -.161863863468D-05  .619002862368D-02  .103488564491D-04  .515366723633D+04
     .374400000000D+06 -.143423676491D-06 -.851512654017D+00  .186264514923D-08
     .934408962570D+00  .167875000000D+03 -.110739878260D+01 -.832748973052D-08
     .117147736816D-09  .100000000000D+01  .157800000000D+04  .000000000000D+00
     .240000000000D+01  .000000000000D+00 -.465661287308D-08  .190000000000D+02
     .367206000000D+06  .400000000000D+01
 7 10  4  8  8  0  0.0  .732950866222D-06 -.341060513165D-12  .000000000000D+00
     .740000000000D+02  .354062500000D+02  .438196824085D-08  .127646121618D+01
     .181607902050D-05  .333975197282D-02  .543706119061D-05  .515372083855D+04
     .374400000000D+06 -.149011611938D-07 -.289369918525D+01  .372529029846D-07
     .971352521440D+00  .280093750000D+03  .304965441412D+01 -.814962517889D-08
     .254653464482D-09  .100000000000D+01  .157800000000D+04  .000000000000D+00
     .240000000000D+01  .000000000000D+00 -.107102096081D-07  .740000000000D+02
     .367206000000D+06  .400000000000D+01
 8 10  4  8  8  0  0.0  .472972169518D-05  .341060513165D-12  .000000000000D+00
     .360000000000D+02  .301875000000D+02  .393123518030D-08  .653290733096D+00
     .159628689289D-05  .109889850719D-01  .537559390068D-05  .515370165062D+04
     .374400000000D+06  .165775418282D-06 -.282684539142D+01  .113621354103D-06
     .992683123682D+00  .291625000000D+03  .309391648254D+01 -.799247577584D-08
     .260010830495D-09  .100000000000D+01  .157800000000D+04  .000000000000D+00
     .240000000000D+01  .000000000000D+00 -.419095158577D-08  .360000000000D+02
     .367206000000D+06  .400000000000D+01
10 10  4  8  8  0  0.0 -.398005358875D-04 -.909494701773D-12  .000000000000D+00
     .410000000000D+02 -.450000000000D+01  .470055293975D-08 -.182789255342D+01
    -.262632966042D-06  .917748908978D-02  .629015266895D-05  .515348048019D+04
     .374400000000D+06  .447034835815D-07  .131518792882D+01 -.167638063431D-06
     .953771239258D+00  .254093750000D+03  .664102256536D+00 -.809069415274D-08
    -.249653256203D-09  .100000000000D+01  .157800000000D+04  .000000000000D+00
     .240000000000D+01  .000000000000D+00 -.279396772385D-08  .410000000000D+02
     .367206000000D+06  .400000000000D+01
11 10  4  8  8  0  0.0 -.552497804165D-04 -.227373675443D-11  .000000000000D+00
     .100000000000D+03  .282500000000D+02  .642633911139D-08  .116542929909D+01
     .168569386005D-05  .105480459752D-01  .801868736744D-05  .515373269844D+04
     .374400000000D+06 -.987201929092D-07  .137398641148D-01  .121071934700D-06
     .888943652803D+00  .188187500000D+03  .800158742029D+00 -.904180519891D-08
     .839320675361D-10  .100000000000D+01  .157800000000D+04  .000000000000D+00
     .240000000000D+01  .000000000000D+00 -.116415321827D-07  .100000000000D+03
     .367206000000D+06  .400000000000D+01
12 10  4  8  8  0  0.0 -.129173509777D-03  .443378667114D-11  .000000000000D+00
     .960000000000D+02 -.546875000000D+02  .455447542647D-08  .131333944552D+01
    -.292249023914D-05  .352569902316D-02  .548548996449D-05  .515371879578D+04
     .374400000000D+06  .484287738800D-07 -.184023969465D+01 -.558793544769D-08
     .969963262749D+00  .281343750000D+03 -.503030056215D+00 -.813355308085D-08
    -.796461747257D-10  .100000000000D+01  .157800000000D+04  .000000000000D+00
     .340000000000D+01  .000000000000D+00 -.121071934700D-07  .960000000000D+02
     .367206000000D+06  .400000000000D+01
